{"type": "FeatureCollection", "features": [ {"type": "Feature", "properties": {"norad_id": 30569, "name": "FENGYUN 1C DEB", "group": "fengyun-1c-debris", "lat": 45.87471500303028, "lon": -48.66732452703295, "alt_km": 642.1176657410333, "timestamp": "2025-12-09T11:33:55.077202+00:00", "meta": {"OBJECT_NAME": "FENGYUN 1C DEB", "OBJECT_ID": "1999-025ALK", "EPOCH": "2025-12-08T20:17:38.638176", "MEAN_MOTION": 14.73388078, "ECCENTRICITY": 0.00065741, "INCLINATION": 98.7387, "RA_OF_ASC_NODE": 121.5232, "ARG_OF_PERICENTER": 105.9463, "MEAN_ANOMALY": 254.2467, "EPHEMERIS_TYPE": 0, "CLASSIFICATION_TYPE": "U", "NORAD_CAT_ID": 30569, "ELEMENT_SET_NO": 999, "REV_AT_EPOCH": 98149, "BSTAR": 0.0050438723, "MEAN_MOTION_DOT": 0.00032793, "MEAN_MOTION_DDOT": 0}, "tle": {"line1": "1 30569U 99025ALK 25342.84558609  .00032793  00000+0  50439-2 0  9995", "line2": "2 30569  98.7387 121.5232 0006574 105.9463 254.2467 14.73388078981493"}}, "geometry": {"type": "Point", "coordinates": [-48.66732452703295, 45.87471500303028]}}, {"type": "Feature", "properties": {"norad_id": 30570, "name": "FENGYUN 1C DEB", "group": "fengyun-1c-debris", "lat": -16.564916882678375, "lon": 18.697229096086815, "alt_km": 863.0067078031107, "timestamp": "2025-12-09T11:33:55.077212+00:00", "meta": {"OBJECT_NAME": "FENGYUN 1C DEB", "OBJECT_ID": "1999-025ALL", "EPOCH": "2025-12-09T01:42:56.392992", "MEAN_MOTION": 14.14257849, "ECCENTRICITY": 0.0035106, "INCLINATION": 98.7154, "RA_OF_ASC_NODE": 15.6818, "ARG_OF_PERICENTER": 222.5091, "MEAN_ANOMALY": 192.1821, "EPHEMERIS_TYPE": 0, "CLASSIFICATION_TYPE": "U", "NORAD_CAT_ID": 30570, "ELEMENT_SET_NO": 999, "REV_AT_EPOCH": 96946, "BSTAR": 0.00066138, "MEAN_MOTION_DOT": 1.227e-05, "MEAN_MOTION_DDOT": 0}, "tle": {"line1": "1 30570U 99025ALL 25343.07148603  .00001227  00000+0  66138-3 0  9994", "line2": "2 30570  98.7154  15.6818 0035106 222.5091 192.1821 14.14257849969469"}}, "geometry": {"type": "Point", "coordinates": [18.697229096086815, -16.564916882678375]}}, {"type": "Feature", "properties": {"norad_id": 30571, "name": "FENGYUN 1C DEB", "group": "fengyun-1c-debris", "lat": -38.06839627067262, "lon": 16.701515597984802, "alt_km": 860.2364634638379, "timestamp": "2025-12-09T11:33:55.077222+00:00", "meta": {"OBJECT_NAME": "FENGYUN 1C DEB", "OBJECT_ID": "1999-025ALM", "EPOCH": "2025-12-09T01:49:29.824032", "MEAN_MOTION": 14.10689881, "ECCENTRICITY": 0.0020659, "INCLINATION": 98.7315, "RA_OF_ASC_NODE": 9.3941, "ARG_OF_PERICENTER": 244.6333, "MEAN_ANOMALY": 176.6939, "EPHEMERIS_TYPE": 0, "CLASSIFICATION_TYPE": "U", "NORAD_CAT_ID": 30571, "ELEMENT_SET_NO": 999, "REV_AT_EPOCH": 96835, "BSTAR": 0.00038638, "MEAN_MOTION_DOT": 6.49e-06, "MEAN_MOTION_DDOT": 0}, "tle": {"line1": "1 30571U 99025ALM 25343.07603963  .00000649  00000+0  38638-3 0  9991", "line2": "2 30571  98.7315   9.3941 0020659 244.6333 176.6939 14.10689881968352"}}, "geometry": {"type": "Point", "coordinates": [16.701515597984802, -38.06839627067262]}}, {"type": "Feature", "properties": {"norad_id": 30572, "name": "FENGYUN 1C DEB", "group": "fengyun-1c-debris", "lat": -66.59721939145092, "lon": 172.28940145816395, "alt_km": 861.4863862706388, "timestamp": "2025-12-09T11:33:55.077232+00:00", "meta": {"OBJECT_NAME": "FENGYUN 1C DEB", "OBJECT_ID": "1999-025ALN", "EPOCH": "2025-12-09T02:10:37.864128", "MEAN_MOTION": 14.08915861, "ECCENTRICITY": 0.0021195, "INCLINATION": 98.7726, "RA_OF_ASC_NODE": 12.8117, "ARG_OF_PERICENTER": 304.3774, "MEAN_ANOMALY": 121.0379, "EPHEMERIS_TYPE": 0, "CLASSIFICATION_TYPE": "U", "NORAD_CAT_ID": 30572, "ELEMENT_SET_NO": 999, "REV_AT_EPOCH": 96710, "BSTAR": 0.00045516, "MEAN_MOTION_DOT": 7.45e-06, "MEAN_MOTION_DDOT": 0}, "tle": {"line1": "1 30572U 99025ALN 25343.09071602  .00000745  00000+0  45516-3 0  9993", "line2": "2 30572  98.7726  12.8117 0021195 304.3774 121.0379 14.08915861967103"}}, "geometry": {"type": "Point", "coordinates": [172.28940145816395, -66.59721939145092]}}, {"type": "Feature", "properties": {"norad_id": 30573, "name": "FENGYUN 1C DEB", "group": "fengyun-1c-debris", "lat": 58.86394596663293, "lon": -143.27777469087138, "alt_km": 901.6127667763467, "timestamp": "2025-12-09T11:33:55.077242+00:00", "meta": {"OBJECT_NAME": "FENGYUN 1C DEB", "OBJECT_ID": "1999-025ALP", "EPOCH": "2025-12-09T02:48:15.675840", "MEAN_MOTION": 14.13798857, "ECCENTRICITY": 0.008822, "INCLINATION": 99.2262, "RA_OF_ASC_NODE": 20.7375, "ARG_OF_PERICENTER": 284.0065, "MEAN_ANOMALY": 139.1937, "EPHEMERIS_TYPE": 0, "CLASSIFICATION_TYPE": "U", "NORAD_CAT_ID": 30573, "ELEMENT_SET_NO": 999, "REV_AT_EPOCH": 96146, "BSTAR": 0.0022702, "MEAN_MOTION_DOT": 4.414e-05, "MEAN_MOTION_DDOT": 0}, "tle": {"line1": "1 30573U 99025ALP 25343.11684810  .00004414  00000+0  22702-2 0  9996", "line2": "2 30573  99.2262  20.7375 0088220 284.0065 139.1937 14.13798857961461"}}, "geometry": {"type": "Point", "coordinates": [-143.27777469087138, 58.86394596663293]}}, {"type": "Feature", "properties": {"norad_id": 30574, "name": "FENGYUN 1C DEB", "group": "fengyun-1c-debris", "lat": 58.21377811325592, "lon": -17.526272241630263, "alt_km": 1055.4596073432558, "timestamp": "2025-12-09T11:33:55.077252+00:00", "meta": {"OBJECT_NAME": "FENGYUN 1C DEB", "OBJECT_ID": "1999-025ALQ", "EPOCH": "2025-12-07T22:23:05.780256", "MEAN_MOTION": 13.77487686, "ECCENTRICITY": 0.02189546, "INCLINATION": 99.3023, "RA_OF_ASC_NODE": 145.6201, "ARG_OF_PERICENTER": 0.2226, "MEAN_ANOMALY": 359.8986, "EPHEMERIS_TYPE": 0, "CLASSIFICATION_TYPE": "U", "NORAD_CAT_ID": 30574, "ELEMENT_SET_NO": 999, "REV_AT_EPOCH": 93702, "BSTAR": 0.0027328429, "MEAN_MOTION_DOT": 3.204e-05, "MEAN_MOTION_DDOT": 0}, "tle": {"line1": "1 30574U 99025ALQ 25341.93270579  .00003204  00000+0  27328-2 0  9993", "line2": "2 30574  99.3023 145.6201 0218954   0.2226 359.8986 13.77487686937023"}}, "geometry": {"type": "Point", "coordinates": [-17.526272241630263, 58.21377811325592]}}, {"type": "Feature", "properties": {"norad_id": 30575, "name": "FENGYUN 1C DEB", "group": "fengyun-1c-debris", "lat": -61.38291891239122, "lon": -123.05027726237651, "alt_km": 727.0435894563379, "timestamp": "2025-12-09T11:33:55.077262+00:00", "meta": {"OBJECT_NAME": "FENGYUN 1C DEB", "OBJECT_ID": "1999-025ALR", "EPOCH": "2025-12-08T20:01:27.172128", "MEAN_MOTION": 14.40023709, "ECCENTRICITY": 0.00540005, "INCLINATION": 99.1698, "RA_OF_ASC_NODE": 73.4776, "ARG_OF_PERICENTER": 248.0307, "MEAN_ANOMALY": 239.684, "EPHEMERIS_TYPE": 0, "CLASSIFICATION_TYPE": "U", "NORAD_CAT_ID": 30575, "ELEMENT_SET_NO": 999, "REV_AT_EPOCH": 98161, "BSTAR": 0.0018181915, "MEAN_MOTION_DOT": 5.782e-05, "MEAN_MOTION_DDOT": 0}, "tle": {"line1": "1 30575U 99025ALR 25342.83434227  .00005782  00000+0  18182-2 0  9997", "line2": "2 30575  99.1698  73.4776 0054000 248.0307 239.6840 14.40023709981618"}}, "geometry": {"type": "Point", "coordinates": [-123.05027726237651, -61.38291891239122]}}, {"type": "Feature", "properties": {"norad_id": 30577, "name": "FENGYUN 1C DEB", "group": "fengyun-1c-debris", "lat": -80.71904472471827, "lon": 88.35126571348978, "alt_km": 843.2167190032778, "timestamp": "2025-12-09T11:33:55.077271+00:00", "meta": {"OBJECT_NAME": "FENGYUN 1C DEB", "OBJECT_ID": "1999-025ALT", "EPOCH": "2025-12-09T02:02:03.561216", "MEAN_MOTION": 14.11133682, "ECCENTRICITY": 0.0028594, "INCLINATION": 98.7708, "RA_OF_ASC_NODE": 17.1009, "ARG_OF_PERICENTER": 292.8643, "MEAN_ANOMALY": 123.9804, "EPHEMERIS_TYPE": 0, "CLASSIFICATION_TYPE": "U", "NORAD_CAT_ID": 30577, "ELEMENT_SET_NO": 999, "REV_AT_EPOCH": 96733, "BSTAR": 0.00067779, "MEAN_MOTION_DOT": 1.182e-05, "MEAN_MOTION_DDOT": 0}, "tle": {"line1": "1 30577U 99025ALT 25343.08476344  .00001182  00000+0  67779-3 0  9990", "line2": "2 30577  98.7708  17.1009 0028594 292.8643 123.9804 14.11133682967338"}}, "geometry": {"type": "Point", "coordinates": [88.35126571348978, -80.71904472471827]}}, {"type": "Feature", "properties": {"norad_id": 30579, "name": "FENGYUN 1C DEB", "group": "fengyun-1c-debris", "lat": -8.406433728903785, "lon": -173.06192442227808, "alt_km": 869.9227542408544, "timestamp": "2025-12-09T11:33:55.077281+00:00", "meta": {"OBJECT_NAME": "FENGYUN 1C DEB", "OBJECT_ID": "1999-025ALV", "EPOCH": "2025-12-08T13:11:01.413024", "MEAN_MOTION": 14.05242873, "ECCENTRICITY": 0.0053709, "INCLINATION": 98.807, "RA_OF_ASC_NODE": 7.3453, "ARG_OF_PERICENTER": 115.1008, "MEAN_ANOMALY": 37.5724, "EPHEMERIS_TYPE": 0, "CLASSIFICATION_TYPE": "U", "NORAD_CAT_ID": 30579, "ELEMENT_SET_NO": 999, "REV_AT_EPOCH": 96398, "BSTAR": 0.00056211, "MEAN_MOTION_DOT": 8.78e-06, "MEAN_MOTION_DDOT": 0}, "tle": {"line1": "1 30579U 99025ALV 25342.54932191  .00000878  00000+0  56211-3 0  9999", "line2": "2 30579  98.8070   7.3453 0053709 115.1008  37.5724 14.05242873963989"}}, "geometry": {"type": "Point", "coordinates": [-173.06192442227808, -8.406433728903785]}}, {"type": "Feature", "properties": {"norad_id": 30594, "name": "FENGYUN 1C DEB", "group": "fengyun-1c-debris", "lat": -36.93345813547326, "lon": -153.47459852901267, "alt_km": 701.2298526078375, "timestamp": "2025-12-09T11:33:55.077291+00:00", "meta": {"OBJECT_NAME": "FENGYUN 1C DEB", "OBJECT_ID": "1999-025ALZ", "EPOCH": "2025-12-09T01:34:12.262080", "MEAN_MOTION": 14.17334845, "ECCENTRICITY": 0.0193555, "INCLINATION": 99.1515, "RA_OF_ASC_NODE": 199.1364, "ARG_OF_PERICENTER": 326.7974, "MEAN_ANOMALY": 32.1174, "EPHEMERIS_TYPE": 0, "CLASSIFICATION_TYPE": "U", "NORAD_CAT_ID": 30594, "ELEMENT_SET_NO": 999, "REV_AT_EPOCH": 97527, "BSTAR": 0.00027626, "MEAN_MOTION_DOT": 6.21e-06, "MEAN_MOTION_DDOT": 0}, "tle": {"line1": "1 30594U 99025ALZ 25343.06541970  .00000621  00000+0  27626-3 0  9999", "line2": "2 30594  99.1515 199.1364 0193555 326.7974  32.1174 14.17334845975270"}}, "geometry": {"type": "Point", "coordinates": [-153.47459852901267, -36.93345813547326]}}]}